OPTICUBE 04             
1 41851U 16067D   24315.15720530  .00012778  00000+0  90565-3 0  9999
2 41851  98.0864 126.5330 0016483 288.5494  71.3939 15.04831211437178
AEROCUBE 8D             
1 41852U 16067E   24315.90855929  .00021824  00000+0  12682-2 0  9999
2 41852  98.1121 133.6043 0004575 345.8876  14.2224 15.12109572437536
AEROCUBE 8C             
1 41853U 16067F   24315.46111559  .00024501  00000+0  14227-2 0  9997
2 41853  98.0943 131.3568 0006304 267.6878  92.3629 15.12102782437453
PROMETHEUS 2-1          
1 41854U 16067G   24315.78809552  .00053093  00000+0  19732-2 0  9994
2 41854  98.0963 141.9680 0009467 278.4360  81.5803 15.27311370438026
PROMETHEUS 2-3          
1 41855U 16067H   24315.78994503  .00053917  00000+0  20095-2 0  9995
2 41855  98.0899 141.3168 0008221 289.8644  70.1706 15.27223086438020
CORVUS BC2              
1 42846U 17042X   24315.73983757  .00010382  00000+0  83539-3 0  9996
2 42846  97.3744 132.9352 0008395 291.0186  69.0140 15.00121551399391
CORVUS BC1              
1 42847U 17042Y   24315.75262591  .00010690  00000+0  85715-3 0  9995
2 42847  97.3701 133.3631 0008574 273.6696  86.3548 15.00247637399412
MIRATA                  
1 43015U 17073C   24315.96870405  .00077838  00000+0  26944-2 0  9994
2 43015  97.5688 199.9347 0140240 114.5994 246.9927 15.20644327378522
MAKERSAT 0              
1 43016U 17073D   24315.92523169  .00032291  00000+0  15886-2 0  9990
2 43016  97.5495 191.2188 0174679 143.8760 217.4418 15.05477988377927
SIRION PATHFINDER-2     
1 43759U 18099B   24315.85095825  .00014950  00000+0  10276-2 0  9998
2 43759  97.5099   8.0032 0011166 142.5506 217.6501 15.05979003324550
CORVUS BC4              
1 43767U 18099K   24315.10121862  .00018369  00000+0  12991-2 0  9990
2 43767  97.4925   3.9970 0009304 201.9278 158.1552 15.04885086324313
MOVE-II                 
1 43780U 18099Y   24316.11239676  .00080142  00000+0  27708-2 0  9990
2 43780  97.5014  18.7431 0004818 177.4969 182.6296 15.29580973325269
SPACEBEE-7              
1 43816U 18099BL  24315.75493994  .00043820  00000+0  20054-2 0  9993
2 43816  97.5296  18.2773 0008758 135.9169 224.2766 15.20341021324605
SPACEBEE-6              
1 43818U 18099BN  24315.94905268  .00268071  00000+0  44015-2 0  9998
2 43818  97.5182  27.6844 0002822 142.5860 217.5589 15.51442326325391
SHIELDS 1               
1 43850U 18104B   24315.87750690  .00039411  00000+0  80946-3 0  9998
2 43850  85.0232 183.0579 0006598 228.8689 131.1997 15.45814643328753
SONATE                  
1 44400U 19038Q   24315.47958909  .00083647  00000+0  16577-2 0  9994
2 44400  97.7146 317.2910 0010015 312.5339  47.5063 15.46697402296583
LUCKY-7                 
1 44406U 19038W   24315.78689849  .00346647  00000+0  20208-2 0  9996
2 44406  97.6928 325.2490 0003118 253.2917 106.8006 15.77464355297150
DUCHIFAT-3              
1 44854U 19089C   24316.10899550  .00060947  00000+0  22893-2 0  9996
2 44854  36.9528 231.6305 0012580 260.3240  99.6089 15.26081074270579
M2 PATHFINDER           
1 45727U 20037E   24315.73158105  .00009417  00000+0  77305-3 0  9997
2 45727  97.7826 131.6768 0012014   0.3707 359.7522 14.99366427237885
NETSAT-4                
1 46504U 20068U   24315.64644426  .00029621  00000+0  13315-2 0  9990
2 46504  97.8226 277.4107 0007472 199.1023 160.9932 15.21062062226384
NETSAT-3                
1 46505U 20068V   24316.14925972  .00030242  00000+0  13845-2 0  9994
2 46505  97.8214 277.2562 0006552 208.5403 151.5473 15.20433793226445
NETSAT-1                
1 46506U 20068W   24316.13934005  .00023849  00000+0  11855-2 0  9995
2 46506  97.8235 276.2741 0005413 223.4348 136.6459 15.17633690226370
NETSAT-2                
1 46507U 20068X   24316.12829460  .00033407  00000+0  15042-2 0  9996
2 46507  97.8211 277.5007 0004301 225.7462 134.3420 15.20993680226400
WILDTRACKCUBE-SIMBA     
1 47941U 21022K   24316.23269673  .00042715  00000+0  14663-2 0  9996
2 47941  97.4410 212.2514 0013032 359.9002   0.2233 15.29932368200871
GRBALPHA                
1 47959U 21022AD  24316.14494171  .00088181  00000+0  22417-2 0  9991
2 47959  97.4404 215.3863 0010051 354.6201   5.4934 15.39236349199896
BEESAT-8                
1 48085U 21022AP  24316.19426398  .00159055  00000+0  24581-2 0  9996
2 48085  97.4675 221.3474 0005668   5.4965 354.6349 15.53518954200509
LEDSAT                  
1 49069U 21073D   24316.10895522  .00064765  00000+0  18653-2 0  9991
2 49069  97.4203  27.0236 0016031 121.2641 239.0175 15.35388620178906
ROBUSTA-1F (MTCUBE 2)   
1 53109U 22080E   24315.54817428 -.00000003  00000+0  00000+0 0  9996
2 53109  70.1139 141.2342 0008337  57.1511 302.9950  6.42584298 54565
SITRO-AIS 5 (KATYS)     
1 57176U 23091L   24316.22579102  .00022964  00000+0  12880-2 0  9998
2 57176  97.5937   7.4139 0015811 342.7818  17.2875 15.13267091 75693
SITRO-AIS 6 (CHIRKIN)   
1 57192U 23091AC  24316.14047775  .00025382  00000+0  14222-2 0  9992
2 57192  97.5934   7.3596 0015599 343.4702  16.6018 15.13284334 75687
SITRO-AIS 8 (ANOKHIN)   
1 57193U 23091AD  24316.12933122  .00027489  00000+0  15100-2 0  9997
2 57193  97.5932   7.5173 0015281 343.9578  16.1167 15.13979691 75691
SITRO-AIS 7 (FARTUSHNIY)
1 57194U 23091AE  24316.15135599  .00025770  00000+0  14474-2 0  9997
2 57194  97.5933   7.3366 0015515 343.9517  16.1220 15.13196649 75681
SITRO-AIS 10 (BURDAEV)  
1 57199U 23091AK  24316.23602596  .00027943  00000+0  14405-2 0  9995
2 57199  97.5944   9.0039 0010455 331.1760  28.8894 15.16282725 75794
SITRO-AIS 9 (SHCHUKIN)  
1 57201U 23091AM  24316.17124646  .00030896  00000+0  15946-2 0  9999
2 57201  97.5939   8.9042 0010497 331.5629  28.5030 15.16218580 75784
SITRO-AIS 12 (SMIRENNIY)
1 57204U 23091AQ  24316.18084413  .00030766  00000+0  15791-2 0  9994
2 57204  97.5948   9.1053 0010342 325.0741  34.9812 15.16416973 75790
SITRO-AIS 11 (SHEFFER)  
1 57208U 23091AU  24316.15598444  .00031365  00000+0  16032-2 0  9994
2 57208  97.5949   9.1235 0010077 326.1439  33.9150 15.16560689 75796
VERONIKA                
1 58261U 23174F   24316.15491758  .00073614  00000+0  22663-2 0  9996
2 58261  97.4448  30.4840 0009848  84.1356 276.1008 15.33318249 56122
ROBUSTA-1E (ENSO)       
1 58470U 23185J   24316.22425170  .00051948  00000+0  16017-2 0  9995
2 58470  97.4077  22.1116 0010817 116.6392 243.5960 15.33364650 52583
SITRO-AIS 29            
1 59052U 24039B   24316.16934950  .00095722  00000+0  21688-2 0  9993
2 59052  97.4058 278.3432 0016942  62.8005 297.4967 15.42595999 39125
SITRO-AIS 30            
1 59053U 24039C   24316.18647858  .00088783  00000+0  20403-2 0  9997
2 59053  97.4058 278.3146 0017134  63.0295 297.2699 15.42196056 39116
SITRO-AIS 31            
1 59054U 24039D   24316.22430218  .00084429  00000+0  19185-2 0  9991
2 59054  97.4058 278.4171 0016915  62.8951 297.4019 15.42555705 39149
SITRO-AIS 33            
1 59055U 24039E   24316.20469067  .00082330  00000+0  18651-2 0  9990
2 59055  97.4060 278.4548 0016674  63.6778 296.6180 15.42659836 39138
SITRO-AIS 35            
1 59056U 24039F   24316.19963230  .00086762  00000+0  19602-2 0  9990
2 59056  97.4060 278.4566 0016523  64.2794 296.0157 15.42725193 39135
SITRO-AIS 32            
1 59057U 24039G   24316.22247049  .00085544  00000+0  19532-2 0  9997
2 59057  97.4064 278.4317 0016728  64.3149 295.9824 15.42410652 39136
SITRO-AIS 34            
1 59058U 24039H   24316.20419238  .00083520  00000+0  18899-2 0  9994
2 59058  97.4061 278.4574 0016579  63.7346 296.5603 15.42690982 39133
SITRO-AIS 36            
1 59059U 24039J   24315.92662904  .00088346  00000+0  19940-2 0  9992
2 59059  97.4062 278.2114 0016507  64.9516 295.3443 15.42748774 39093
SITRO-AIS 49            
1 59060U 24039K   24316.19782999  .00086064  00000+0  19573-2 0  9998
2 59060  97.4065 278.4623 0016422  63.7277 296.5656 15.42532266 39133
SITRO-AIS 50            
1 59061U 24039L   24316.16221354  .00095523  00000+0  21306-2 0  9996
2 59061  97.4060 278.5051 0016378  63.8056 296.4874 15.43075717 39136
SITRO-AIS 51            
1 59062U 24039M   24316.22607103  .00089173  00000+0  19872-2 0  9993
2 59062  97.4058 278.5709 0016265  64.0862 296.2060 15.43129845 39145
SITRO-AIS 52            
1 59063U 24039N   24316.20924742  .00085177  00000+0  18927-2 0  9993
2 59063  97.4059 278.5977 0016105  64.1101 296.1805 15.43234545 39144
SITRO-AIS 25            
1 59066U 24039R   24316.19269625  .00011124  00000+0  10032-2 0  9996
2 59066  95.3891 197.0289 0162983 195.6960 163.9176 14.85944539 37919
SITRO-AIS 26            
1 59067U 24039S   24316.19881762  .00011137  00000+0  10072-2 0  9997
2 59067  95.3888 197.0226 0163167 195.7536 163.8577 14.85819999 37917
SITRO-AIS 27            
1 59068U 24039T   24316.10187124  .00013379  00000+0  12026-2 0  9991
2 59068  95.3895 197.0099 0162519 195.7168 163.8977 14.86088293 37904
SITRO-AIS 28            
1 59071U 24039U   24316.22945607  .00012939  00000+0  11621-2 0  9997
2 59071  95.3894 197.1103 0162406 195.2318 164.3984 14.86135937 37925
GRBBETA                 
1 60237U 24128C   24316.09850248  .00013891  00000+0  11396-2 0  9990
2 60237  61.9928  91.6056 0025633   1.8223 358.2954 14.99243872 18607
OOV-CUBE (TUBSAT-30)    
1 60240U 24128F   24315.09923000  .00011851  00000+0  10084-2 0  9997
2 60240  61.9968  95.6763 0023550 356.1276   3.9627 14.97980256 18450
ROBUSTA-3A (MEDITERRAN*)
1 60243U 24128J   24316.08809450  .00021575  00000+0  17594-2 0  9999
2 60243  61.9900  92.0551 0023994 348.7531  11.3019 14.99264776 18607
